[{"OBJECT_NAME":"STARLINK-31650","OBJECT_ID":"2024-073B","EPOCH":"2026-03-09T02:17:41.786592","MEAN_MOTION":15.27567219,"ECCENTRICITY":0.00011206,"INCLINATION":43.0062,"RA_OF_ASC_NODE":321.4729,"ARG_OF_PERICENTER":14.9251,"MEAN_ANOMALY":345.1633,"EPHEMERIS_TYPE":0,"CLASSIFICATION_TYPE":"U","NORAD_CAT_ID":59512,"ELEMENT_SET_NO":999,"REV_AT_EPOCH":10608,"BSTAR":0.00016941294,"MEAN_MOTION_DOT":4.401e-5,"MEAN_MOTION_DDOT":0},{"OBJECT_NAME":"ELECTRON KICK STAGE R\/B","OBJECT_ID":"2024-047B","EPOCH":"2026-03-09T21:11:54.433824","MEAN_MOTION":15.27307897,"ECCENTRICITY":0.00092426,"INCLINATION":97.6338,"RA_OF_ASC_NODE":46.9382,"ARG_OF_PERICENTER":20.6031,"MEAN_ANOMALY":339.5579,"EPHEMERIS_TYPE":0,"CLASSIFICATION_TYPE":"U","NORAD_CAT_ID":59225,"ELEMENT_SET_NO":999,"REV_AT_EPOCH":10999,"BSTAR":0.00091229405,"MEAN_MOTION_DOT":0.00024409,"MEAN_MOTION_DDOT":0}]
